{"type":"Topology","objects":{"peru":{"type":"GeometryCollection","geometries":[{"type":"Point","coordinates":[267965,662925],"id":"0215","properties":{"ubigeo":"0215","nombre_departamento":"ancash","nombre_provincia":"pallasca","nombre_distrito":"cabana","capital":"cabana"}},{"type":"Point","coordinates":[117815,774506],"id":"1401","properties":{"ubigeo":"1401","nombre_departamento":"lambayeque","nombre_provincia":"chiclayo","nombre_distrito":"chiclayo","capital":"chiclayo"}},{"type":"Point","coordinates":[112105,779411],"id":"1403","properties":{"ubigeo":"1403","nombre_departamento":"lambayeque","nombre_provincia":"lambayeque","nombre_distrito":"lambayeque","capital":"lambayeque"}},{"type":"Point","coordinates":[337946,541742],"id":"0205","properties":{"ubigeo":"0205","nombre_departamento":"ancash","nombre_provincia":"bolognesi","nombre_distrito":"chiquian","capital":"chiquian"}},{"type":"Point","coordinates":[318272,524437],"id":"0214","properties":{"ubigeo":"0214","nombre_departamento":"ancash","nombre_provincia":"ocros","nombre_distrito":"ocros","capital":"ocros"}},{"type":"Point","coordinates":[381102,546721],"id":"1010","properties":{"ubigeo":"1010","nombre_departamento":"huanuco","nombre_provincia":"lauricocha","nombre_distrito":"jesus","capital":"jesus"}},{"type":"Point","coordinates":[351368,519617],"id":"1503","properties":{"ubigeo":"1503","nombre_departamento":"lima","nombre_provincia":"cajatambo","nombre_distrito":"cajatambo","capital":"cajatambo"}},{"type":"Point","coordinates":[390412,518255],"id":"1902","properties":{"ubigeo":"1902","nombre_departamento":"pasco","nombre_provincia":"daniel alcides carrion","nombre_distrito":"yanahuanca","capital":"yanahuanca"}},{"type":"Point","coordinates":[288337,500253],"id":"1502","properties":{"ubigeo":"1502","nombre_departamento":"lima","nombre_provincia":"barranca","nombre_distrito":"barranca","capital":"barranca"}},{"type":"Point","coordinates":[369388,506100],"id":"1509","properties":{"ubigeo":"1509","nombre_departamento":"lima","nombre_provincia":"oyon","nombre_distrito":"oyon","capital":"oyon"}},{"type":"Point","coordinates":[338722,410236],"id":"0701","properties":{"ubigeo":"0701","nombre_departamento":"callao","nombre_provincia":"callao","nombre_distrito":"callao","capital":"callao"}},{"type":"Point","coordinates":[491217,410209],"id":"1209","properties":{"ubigeo":"1209","nombre_departamento":"junin","nombre_provincia":"chupaca","nombre_distrito":"chupaca","capital":"chupaca"}},{"type":"Point","coordinates":[401198,425021],"id":"1507","properties":{"ubigeo":"1507","nombre_departamento":"lima","nombre_provincia":"huarochiri","nombre_distrito":"matucana","capital":"matucana"}},{"type":"Point","coordinates":[497611,409557],"id":"1201","properties":{"ubigeo":"1201","nombre_departamento":"junin","nombre_provincia":"huancayo","nombre_distrito":"huancayo","capital":"huancayo"}},{"type":"Point","coordinates":[401135,339960],"id":"1505","properties":{"ubigeo":"1505","nombre_departamento":"lima","nombre_provincia":"canete","nombre_distrito":"san vicente de canete","capital":"san vicente de canete"}},{"type":"Point","coordinates":[421945,316553],"id":"1102","properties":{"ubigeo":"1102","nombre_departamento":"ica","nombre_provincia":"chincha","nombre_distrito":"chincha alta","capital":"chincha alta"}},{"type":"Point","coordinates":[256204,547371],"id":"0211","properties":{"ubigeo":"0211","nombre_departamento":"ancash","nombre_provincia":"huarmey","nombre_distrito":"huarmey","capital":"huarmey"}},{"type":"Point","coordinates":[243519,588247],"id":"0208","properties":{"ubigeo":"0208","nombre_departamento":"ancash","nombre_provincia":"casma","nombre_distrito":"casma","capital":"casma"}},{"type":"Point","coordinates":[455401,271731],"id":"1101","properties":{"ubigeo":"1101","nombre_departamento":"ica","nombre_provincia":"ica","nombre_distrito":"ica","capital":"ica"}},{"type":"Point","coordinates":[416297,296465],"id":"1105","properties":{"ubigeo":"1105","nombre_departamento":"ica","nombre_provincia":"pisco","nombre_distrito":"pisco","capital":"pisco"}},{"type":"Point","coordinates":[277029,650643],"id":"0209","properties":{"ubigeo":"0209","nombre_departamento":"ancash","nombre_provincia":"corongo","nombre_distrito":"corongo","capital":"corongo"}},{"type":"Point","coordinates":[321363,630322],"id":"0213","properties":{"ubigeo":"0213","nombre_departamento":"ancash","nombre_provincia":"mariscal luzuriaga","nombre_distrito":"piscobamba","capital":"piscobamba"}},{"type":"Point","coordinates":[313012,633360],"id":"0216","properties":{"ubigeo":"0216","nombre_departamento":"ancash","nombre_provincia":"pomabamba","nombre_distrito":"pomabamba","capital":"pomabamba"}},{"type":"Point","coordinates":[298884,651728],"id":"0219","properties":{"ubigeo":"0219","nombre_departamento":"ancash","nombre_provincia":"sihuas","nombre_distrito":"sihuas","capital":"sihuas"}},{"type":"Point","coordinates":[338719,648127],"id":"1007","properties":{"ubigeo":"1007","nombre_departamento":"huanuco","nombre_provincia":"maranon","nombre_distrito":"huacrachuco","capital":"huacrachuco"}},{"type":"Point","coordinates":[307489,584432],"id":"0201","properties":{"ubigeo":"0201","nombre_departamento":"ancash","nombre_provincia":"huaraz","nombre_distrito":"huaraz","capital":"huaraz"}},{"type":"Point","coordinates":[297850,601677],"id":"0206","properties":{"ubigeo":"0206","nombre_departamento":"ancash","nombre_provincia":"carhuaz","nombre_distrito":"carhuaz","capital":"carhuaz"}},{"type":"Point","coordinates":[284110,617816],"id":"0212","properties":{"ubigeo":"0212","nombre_departamento":"ancash","nombre_provincia":"huaylas","nombre_distrito":"caraz","capital":"caraz"}},{"type":"Point","coordinates":[289602,611626],"id":"0220","properties":{"ubigeo":"0220","nombre_departamento":"ancash","nombre_provincia":"yungay","nombre_distrito":"yungay","capital":"yungay"}},{"type":"Point","coordinates":[300773,567221],"id":"0202","properties":{"ubigeo":"0202","nombre_departamento":"ancash","nombre_provincia":"aija","nombre_distrito":"aija","capital":"aija"}},{"type":"Point","coordinates":[349473,614167],"id":"0203","properties":{"ubigeo":"0203","nombre_departamento":"ancash","nombre_provincia":"antonio raymondi","nombre_distrito":"llamellin","capital":"llamellin"}},{"type":"Point","coordinates":[320629,609926],"id":"0204","properties":{"ubigeo":"0204","nombre_departamento":"ancash","nombre_provincia":"asuncion","nombre_distrito":"chacas","capital":"chacas"}},{"type":"Point","coordinates":[323687,614675],"id":"ancarl","properties":{"ubigeo":"ancarl","nombre_departamento":"ancash","nombre_provincia":"carlos f.fitzcarrald","nombre_distrito":"san luis","capital":"san luis"}},{"type":"Point","coordinates":[336517,597063],"id":"0210","properties":{"ubigeo":"0210","nombre_departamento":"ancash","nombre_provincia":"huari","nombre_distrito":"huari","capital":"huari"}},{"type":"Point","coordinates":[313286,571515],"id":"0217","properties":{"ubigeo":"0217","nombre_departamento":"ancash","nombre_provincia":"recuay","nombre_distrito":"recuay","capital":"recuay"}},{"type":"Point","coordinates":[354506,618472],"id":"1004","properties":{"ubigeo":"1004","nombre_departamento":"huanuco","nombre_provincia":"huacaybamba","nombre_distrito":"huacaybamba","capital":"huacaybamba"}},{"type":"Point","coordinates":[365843,583218],"id":"1005","properties":{"ubigeo":"1005","nombre_departamento":"huanuco","nombre_provincia":"huamalies","nombre_distrito":"llata","capital":"llata"}},{"type":"Point","coordinates":[992412,373243],"id":"1701","properties":{"ubigeo":"1701","nombre_departamento":"madre de dios","nombre_provincia":"tambopata","nombre_distrito":"tambopata","capital":"puerto maldonado"}},{"type":"Point","coordinates":[383080,562059],"id":"1011","properties":{"ubigeo":"1011","nombre_departamento":"huanuco","nombre_provincia":"yarowilca","nombre_distrito":"chavinillo","capital":"chavinillo"}},{"type":"Point","coordinates":[848763,56448],"id":"1801","properties":{"ubigeo":"1801","nombre_departamento":"moquegua","nombre_provincia":"mariscal nieto","nombre_distrito":"moquegua","capital":"moquegua"}},{"type":"Point","coordinates":[815264,25486],"id":"1803","properties":{"ubigeo":"1803","nombre_departamento":"moquegua","nombre_provincia":"ilo","nombre_distrito":"ilo","capital":"ilo"}},{"type":"Point","coordinates":[232512,844619],"id":"0107","properties":{"ubigeo":"0107","nombre_departamento":"amazonas","nombre_provincia":"utcubamba","nombre_distrito":"bagua grande","capital":"bagua grande"}},{"type":"Point","coordinates":[279205,924486],"id":"0104","properties":{"ubigeo":"0104","nombre_departamento":"amazonas","nombre_provincia":"condorcanqui","nombre_distrito":"nieva","capital":"santa maria de nieva"}},{"type":"Point","coordinates":[657872,982847],"id":"1601","properties":{"ubigeo":"1601","nombre_departamento":"loreto","nombre_provincia":"maynas","nombre_distrito":"iquitos","capital":"iquitos"}},{"type":"Point","coordinates":[631913,930765],"id":"1603","properties":{"ubigeo":"1603","nombre_departamento":"loreto","nombre_provincia":"loreto","nombre_distrito":"nauta","capital":"nauta"}},{"type":"Point","coordinates":[280083,811895],"id":"0101","properties":{"ubigeo":"0101","nombre_departamento":"amazonas","nombre_provincia":"chachapoyas","nombre_distrito":"chachapoyas","capital":"chachapoyas"}},{"type":"Point","coordinates":[272548,818388],"id":"0105","properties":{"ubigeo":"0105","nombre_departamento":"amazonas","nombre_provincia":"luya","nombre_distrito":"lamud","capital":"lamud"}},{"type":"Point","coordinates":[424084,835077],"id":"1602","properties":{"ubigeo":"1602","nombre_departamento":"loreto","nombre_provincia":"alto amazonas","nombre_distrito":"yurimaguas","capital":"yurimaguas"}},{"type":"Point","coordinates":[609384,892645],"id":"1605","properties":{"ubigeo":"1605","nombre_departamento":"loreto","nombre_provincia":"requena","nombre_distrito":"requena","capital":"requena"}},{"type":"Point","coordinates":[353238,825534],"id":"2201","properties":{"ubigeo":"2201","nombre_departamento":"san martin","nombre_provincia":"moyobamba","nombre_distrito":"moyobamba","capital":"moyobamba"}},{"type":"Point","coordinates":[375834,785236],"id":"2203","properties":{"ubigeo":"2203","nombre_departamento":"san martin","nombre_provincia":"el dorado","nombre_distrito":"san jose de sisa","capital":"san jose de sisa"}},{"type":"Point","coordinates":[369581,763450],"id":"2204","properties":{"ubigeo":"2204","nombre_departamento":"san martin","nombre_provincia":"huallaga","nombre_distrito":"saposoa","capital":"saposoa"}},{"type":"Point","coordinates":[390283,798759],"id":"2205","properties":{"ubigeo":"2205","nombre_departamento":"san martin","nombre_provincia":"lamas","nombre_distrito":"lamas","capital":"lamas"}},{"type":"Point","coordinates":[405851,764459],"id":"2207","properties":{"ubigeo":"2207","nombre_departamento":"san martin","nombre_provincia":"picota","nombre_distrito":"picota","capital":"picota"}},{"type":"Point","coordinates":[336957,823522],"id":"2208","properties":{"ubigeo":"2208","nombre_departamento":"san martin","nombre_provincia":"rioja","nombre_distrito":"rioja","capital":"rioja"}},{"type":"Point","coordinates":[403107,794125],"id":"2209","properties":{"ubigeo":"2209","nombre_departamento":"san martin","nombre_provincia":"san martin","nombre_distrito":"tarapoto","capital":"tarapoto"}},{"type":"Point","coordinates":[384579,754823],"id":"2202","properties":{"ubigeo":"2202","nombre_departamento":"san martin","nombre_provincia":"bellavista","nombre_distrito":"bellavista","capital":"bellavista"}},{"type":"Point","coordinates":[372991,746366],"id":"2206","properties":{"ubigeo":"2206","nombre_departamento":"san martin","nombre_provincia":"mariscal caceres","nombre_distrito":"juanjui","capital":"juanjui"}},{"type":"Point","coordinates":[412961,557181],"id":"1001","properties":{"ubigeo":"1001","nombre_departamento":"huanuco","nombre_provincia":"huanuco","nombre_distrito":"huanuco","capital":"huanuco"}},{"type":"Point","coordinates":[433117,600737],"id":"1006","properties":{"ubigeo":"1006","nombre_departamento":"huanuco","nombre_provincia":"leoncio prado","nombre_distrito":"rupa-rupa","capital":"tingo maria"}},{"type":"Point","coordinates":[517828,595124],"id":"1009","properties":{"ubigeo":"1009","nombre_departamento":"huanuco","nombre_provincia":"puerto inca","nombre_distrito":"puerto inca","capital":"puerto inca"}},{"type":"Point","coordinates":[433419,559145],"id":"1008","properties":{"ubigeo":"1008","nombre_departamento":"huanuco","nombre_provincia":"pachitea","nombre_distrito":"panao","capital":"panao"}},{"type":"Point","coordinates":[416082,543230],"id":"1002","properties":{"ubigeo":"1002","nombre_departamento":"huanuco","nombre_provincia":"ambo","nombre_distrito":"ambo","capital":"ambo"}},{"type":"Point","coordinates":[411660,505271],"id":"1901","properties":{"ubigeo":"1901","nombre_departamento":"pasco","nombre_provincia":"pasco","nombre_distrito":"chaupimarca","capital":"cerro de pasco"}},{"type":"Point","coordinates":[433226,471882],"id":"1205","properties":{"ubigeo":"1205","nombre_departamento":"junin","nombre_provincia":"junin","nombre_distrito":"junin","capital":"junin"}},{"type":"Point","coordinates":[481771,512375],"id":"1903","properties":{"ubigeo":"1903","nombre_departamento":"pasco","nombre_provincia":"oxapampa","nombre_distrito":"oxapampa","capital":"oxapampa"}},{"type":"Point","coordinates":[489214,420040],"id":"1202","properties":{"ubigeo":"1202","nombre_departamento":"junin","nombre_provincia":"concepcion","nombre_distrito":"concepcion","capital":"concepcion"}},{"type":"Point","coordinates":[488157,479449],"id":"1203","properties":{"ubigeo":"1203","nombre_departamento":"junin","nombre_provincia":"chanchamayo","nombre_distrito":"chanchamayo","capital":"la merced"}},{"type":"Point","coordinates":[474187,429815],"id":"1204","properties":{"ubigeo":"1204","nombre_departamento":"junin","nombre_provincia":"jauja","nombre_distrito":"jauja","capital":"jauja"}},{"type":"Point","coordinates":[458452,454318],"id":"1207","properties":{"ubigeo":"1207","nombre_departamento":"junin","nombre_provincia":"tarma","nombre_distrito":"tarma","capital":"tarma"}},{"type":"Point","coordinates":[441150,447433],"id":"1208","properties":{"ubigeo":"1208","nombre_departamento":"junin","nombre_provincia":"yauli","nombre_distrito":"la oroya","capital":"la oroya"}},{"type":"Point","coordinates":[544862,466131],"id":"1206","properties":{"ubigeo":"1206","nombre_departamento":"junin","nombre_provincia":"satipo","nombre_distrito":"satipo","capital":"satipo"}},{"type":"Point","coordinates":[499697,239715],"id":"1104","properties":{"ubigeo":"1104","nombre_departamento":"ica","nombre_provincia":"palpa","nombre_distrito":"palpa","capital":"palpa"}},{"type":"Point","coordinates":[12992,890627],"id":"2005","properties":{"ubigeo":"2005","nombre_departamento":"piura","nombre_provincia":"paita","nombre_distrito":"paita","capital":"paita"}},{"type":"Point","coordinates":[520054,219581],"id":"icnazc","properties":{"ubigeo":"icnazc","nombre_departamento":"ica","nombre_provincia":"nazca","nombre_distrito":"nazca","capital":"nazca"}},{"type":"Point","coordinates":[47931,904160],"id":"2006","properties":{"ubigeo":"2006","nombre_departamento":"piura","nombre_provincia":"sullana","nombre_distrito":"sullana","capital":"sullana"}},{"type":"Point","coordinates":[52964,883212],"id":"2001","properties":{"ubigeo":"2001","nombre_departamento":"piura","nombre_provincia":"piura","nombre_distrito":"piura","capital":"piura"}},{"type":"Point","coordinates":[127777,921476],"id":"2002","properties":{"ubigeo":"2002","nombre_departamento":"piura","nombre_provincia":"ayabaca","nombre_distrito":"ayabaca","capital":"ayabaca"}},{"type":"Point","coordinates":[91184,890023],"id":"2004","properties":{"ubigeo":"2004","nombre_departamento":"piura","nombre_provincia":"morropon","nombre_distrito":"chulucanas","capital":"chulucanas"}},{"type":"Point","coordinates":[149709,880122],"id":"2003","properties":{"ubigeo":"2003","nombre_departamento":"piura","nombre_provincia":"huancabamba","nombre_distrito":"huancabamba","capital":"huancabamba"}},{"type":"Point","coordinates":[224843,852728],"id":"0102","properties":{"ubigeo":"0102","nombre_departamento":"amazonas","nombre_provincia":"bagua","nombre_distrito":"la peca","capital":"bagua"}},{"type":"Point","coordinates":[184023,682467],"id":"1301","properties":{"ubigeo":"1301","nombre_departamento":"la libertad","nombre_provincia":"trujillo","nombre_distrito":"trujillo","capital":"trujillo"}},{"type":"Point","coordinates":[228723,687113],"id":"1305","properties":{"ubigeo":"1305","nombre_departamento":"la libertad","nombre_provincia":"julcan","nombre_distrito":"julcan","capital":"julcan"}},{"type":"Point","coordinates":[145136,729105],"id":"1307","properties":{"ubigeo":"1307","nombre_departamento":"la libertad","nombre_provincia":"pacasmayo","nombre_distrito":"san pedro de lloc","capital":"san pedro de lloc"}},{"type":"Point","coordinates":[254216,679970],"id":"1310","properties":{"ubigeo":"1310","nombre_departamento":"la libertad","nombre_provincia":"santiago de chuco","nombre_distrito":"santiago de chuco","capital":"santiago de chuco"}},{"type":"Point","coordinates":[206929,661324],"id":"1312","properties":{"ubigeo":"1312","nombre_departamento":"la libertad","nombre_provincia":"viru","nombre_distrito":"viru","capital":"viru"}},{"type":"Point","coordinates":[326445,670923],"id":"1308","properties":{"ubigeo":"1308","nombre_departamento":"la libertad","nombre_provincia":"pataz","nombre_distrito":"tayabamba","capital":"tayabamba"}},{"type":"Point","coordinates":[177724,709590],"id":"1302","properties":{"ubigeo":"1302","nombre_departamento":"la libertad","nombre_provincia":"ascope","nombre_distrito":"ascope","capital":"ascope"}},{"type":"Point","coordinates":[151314,743177],"id":"1304","properties":{"ubigeo":"1304","nombre_departamento":"la libertad","nombre_provincia":"chepen","nombre_distrito":"chepen","capital":"chepen"}},{"type":"Point","coordinates":[222322,696740],"id":"1306","properties":{"ubigeo":"1306","nombre_departamento":"la libertad","nombre_provincia":"otuzco","nombre_distrito":"otuzco","capital":"otuzco"}},{"type":"Point","coordinates":[201482,725914],"id":"1311","properties":{"ubigeo":"1311","nombre_departamento":"la libertad","nombre_provincia":"gran chimu","nombre_distrito":"cascas","capital":"cascas"}},{"type":"Point","coordinates":[293140,748252],"id":"1303","properties":{"ubigeo":"1303","nombre_departamento":"la libertad","nombre_provincia":"bolivar","nombre_distrito":"bolivar","capital":"bolivar"}},{"type":"Point","coordinates":[264545,702724],"id":"1309","properties":{"ubigeo":"1309","nombre_departamento":"la libertad","nombre_provincia":"sanchez carrion","nombre_distrito":"huamachuco","capital":"huamachuco"}},{"type":"Point","coordinates":[578683,334442],"id":"0501","properties":{"ubigeo":"0501","nombre_departamento":"ayacucho","nombre_provincia":"huamanga","nombre_distrito":"ayacucho","capital":"ayacucho"}},{"type":"Point","coordinates":[576652,349752],"id":"0504","properties":{"ubigeo":"0504","nombre_departamento":"ayacucho","nombre_provincia":"huanta","nombre_distrito":"huanta","capital":"huanta"}},{"type":"Point","coordinates":[598678,344597],"id":"0505","properties":{"ubigeo":"0505","nombre_departamento":"ayacucho","nombre_provincia":"la mar","nombre_distrito":"san miguel","capital":"san miguel"}},{"type":"Point","coordinates":[586741,228951],"id":"0506","properties":{"ubigeo":"0506","nombre_departamento":"ayacucho","nombre_provincia":"lucanas","nombre_distrito":"puquio","capital":"puquio"}},{"type":"Point","coordinates":[615194,206578],"id":"0507","properties":{"ubigeo":"0507","nombre_departamento":"ayacucho","nombre_provincia":"parinacochas","nombre_distrito":"coracora","capital":"coracora"}},{"type":"Point","coordinates":[600942,300422],"id":"0511","properties":{"ubigeo":"0511","nombre_departamento":"ayacucho","nombre_provincia":"vilcas huaman","nombre_distrito":"vilcas huaman","capital":"vilcas huaman"}},{"type":"Point","coordinates":[649164,154455],"id":"0403","properties":{"ubigeo":"0403","nombre_departamento":"arequipa","nombre_provincia":"caraveli","nombre_distrito":"caraveli","capital":"caraveli"}},{"type":"Point","coordinates":[707785,149837],"id":"0406","properties":{"ubigeo":"0406","nombre_departamento":"arequipa","nombre_provincia":"condesuyos","nombre_distrito":"chuquibamba","capital":"chuquibamba"}},{"type":"Point","coordinates":[703093,95821],"id":"0402","properties":{"ubigeo":"0402","nombre_departamento":"arequipa","nombre_provincia":"camana","nombre_distrito":"camana","capital":"camana"}},{"type":"Point","coordinates":[760015,68166],"id":"0407","properties":{"ubigeo":"0407","nombre_departamento":"arequipa","nombre_provincia":"islay","nombre_distrito":"mollendo","capital":"mollendo"}},{"type":"Point","coordinates":[794048,163588],"id":"0405","properties":{"ubigeo":"0405","nombre_departamento":"arequipa","nombre_provincia":"caylloma","nombre_distrito":"chivay","capital":"chivay"}},{"type":"Point","coordinates":[799441,111169],"id":"0401","properties":{"ubigeo":"0401","nombre_departamento":"arequipa","nombre_provincia":"arequipa","nombre_distrito":"arequipa","capital":"arequipa"}},{"type":"Point","coordinates":[50255,988146],"id":"2402","properties":{"ubigeo":"2402","nombre_departamento":"tumbes","nombre_provincia":"contralmirante villar","nombre_distrito":"zorritos","capital":"zorritos"}},{"type":"Point","coordinates":[67402,995608],"id":"2401","properties":{"ubigeo":"2401","nombre_departamento":"tumbes","nombre_provincia":"tumbes","nombre_distrito":"tumbes","capital":"tumbes"}},{"type":"Point","coordinates":[81907,999999],"id":"2403","properties":{"ubigeo":"2403","nombre_departamento":"tumbes","nombre_provincia":"zarumilla","nombre_distrito":"zarumilla","capital":"zarumilla"}},{"type":"Point","coordinates":[862808,27567],"id":"2303","properties":{"ubigeo":"2303","nombre_departamento":"tacna","nombre_provincia":"jorge basadre","nombre_distrito":"locumba","capital":"locumba"}},{"type":"Point","coordinates":[904709,0],"id":"2301","properties":{"ubigeo":"2301","nombre_departamento":"tacna","nombre_provincia":"tacna","nombre_distrito":"tacna","capital":"tacna"}},{"type":"Point","coordinates":[517165,360082],"id":"0901","properties":{"ubigeo":"0901","nombre_departamento":"huancavelica","nombre_provincia":"huancavelica","nombre_distrito":"huancavelica","capital":"huancavelica"}},{"type":"Point","coordinates":[550339,356318],"id":"0902","properties":{"ubigeo":"0902","nombre_departamento":"huancavelica","nombre_provincia":"acobamba","nombre_distrito":"acobamba","capital":"acobamba"}},{"type":"Point","coordinates":[538140,346591],"id":"0903","properties":{"ubigeo":"0903","nombre_departamento":"huancavelica","nombre_provincia":"angaraes","nombre_distrito":"lircay","capital":"lircay"}},{"type":"Point","coordinates":[488843,325878],"id":"0904","properties":{"ubigeo":"0904","nombre_departamento":"huancavelica","nombre_provincia":"castrovirreyna","nombre_distrito":"castrovirreyna","capital":"castrovirreyna"}},{"type":"Point","coordinates":[486022,303808],"id":"0906","properties":{"ubigeo":"0906","nombre_departamento":"huancavelica","nombre_provincia":"huaytara","nombre_distrito":"huaytara","capital":"huaytara"}},{"type":"Point","coordinates":[565273,363355],"id":"0905","properties":{"ubigeo":"0905","nombre_departamento":"huancavelica","nombre_provincia":"churcampa","nombre_distrito":"churcampa","capital":"churcampa"}},{"type":"Point","coordinates":[202214,847754],"id":"0608","properties":{"ubigeo":"0608","nombre_departamento":"cajamarca","nombre_provincia":"jaen","nombre_distrito":"jaen","capital":"jaen"}},{"type":"Point","coordinates":[186625,886711],"id":"0609","properties":{"ubigeo":"0609","nombre_departamento":"cajamarca","nombre_provincia":"san ignacio","nombre_distrito":"san ignacio","capital":"san ignacio"}},{"type":"Point","coordinates":[215234,789077],"id":"0604","properties":{"ubigeo":"0604","nombre_departamento":"cajamarca","nombre_provincia":"chota","nombre_distrito":"chota","capital":"chota"}},{"type":"Point","coordinates":[201498,801657],"id":"0606","properties":{"ubigeo":"0606","nombre_departamento":"cajamarca","nombre_provincia":"cutervo","nombre_distrito":"cutervo","capital":"cutervo"}},{"type":"Point","coordinates":[225834,781047],"id":"0607","properties":{"ubigeo":"0607","nombre_departamento":"cajamarca","nombre_provincia":"hualgayoc","nombre_distrito":"bambamarca","capital":"bambamarca"}},{"type":"Point","coordinates":[198774,758914],"id":"0611","properties":{"ubigeo":"0611","nombre_departamento":"cajamarca","nombre_provincia":"san miguel","nombre_distrito":"san miguel","capital":"san miguel de pallaques"}},{"type":"Point","coordinates":[256652,767998],"id":"0603","properties":{"ubigeo":"0603","nombre_departamento":"cajamarca","nombre_provincia":"celendin","nombre_distrito":"celendin","capital":"celendin"}},{"type":"Point","coordinates":[226035,748066],"id":"0601","properties":{"ubigeo":"0601","nombre_departamento":"cajamarca","nombre_provincia":"cajamarca","nombre_distrito":"cajamarca","capital":"cajamarca"}},{"type":"Point","coordinates":[202650,733735],"id":"0605","properties":{"ubigeo":"0605","nombre_departamento":"cajamarca","nombre_provincia":"contumaza","nombre_distrito":"contumaza","capital":"contumaza"}},{"type":"Point","coordinates":[201089,750692],"id":"0612","properties":{"ubigeo":"0612","nombre_departamento":"cajamarca","nombre_provincia":"san pablo","nombre_distrito":"san pablo","capital":"san pablo"}},{"type":"Point","coordinates":[264996,716022],"id":"0602","properties":{"ubigeo":"0602","nombre_departamento":"cajamarca","nombre_provincia":"cajabamba","nombre_distrito":"cajabamba","capital":"cajabamba"}},{"type":"Point","coordinates":[254672,735750],"id":"0610","properties":{"ubigeo":"0610","nombre_departamento":"cajamarca","nombre_provincia":"san marcos","nombre_distrito":"pedro galvez","capital":"san marcos"}},{"type":"Point","coordinates":[191077,784567],"id":"0613","properties":{"ubigeo":"0613","nombre_departamento":"cajamarca","nombre_provincia":"santa cruz","nombre_distrito":"santa cruz","capital":"santa cruz"}},{"type":"Point","coordinates":[746953,280374],"id":"0305","properties":{"ubigeo":"0305","nombre_departamento":"apurimac","nombre_provincia":"cotabambas","nombre_distrito":"tambobamba","capital":"tambobamba"}},{"type":"Point","coordinates":[689308,301622],"id":"0301","properties":{"ubigeo":"0301","nombre_departamento":"apurimac","nombre_provincia":"abancay","nombre_distrito":"abancay","capital":"abancay"}},{"type":"Point","coordinates":[659120,256251],"id":"0304","properties":{"ubigeo":"0304","nombre_departamento":"apurimac","nombre_provincia":"aymaraes","nombre_distrito":"chalhuanca","capital":"chalhuanca"}},{"type":"Point","coordinates":[553521,663890],"id":"2501","properties":{"ubigeo":"2501","nombre_departamento":"ucayali","nombre_provincia":"coronel portillo","nombre_distrito":"calleria","capital":"pucallpa"}},{"type":"Point","coordinates":[617083,502044],"id":"2502","properties":{"ubigeo":"2502","nombre_departamento":"ucayali","nombre_provincia":"atalaya","nombre_distrito":"raymondi","capital":"atalaya"}},{"type":"Point","coordinates":[381634,451085],"id":"1504","properties":{"ubigeo":"1504","nombre_departamento":"lima","nombre_provincia":"canta","nombre_distrito":"canta","capital":"canta"}},{"type":"Point","coordinates":[936255,213524],"id":"2110","properties":{"ubigeo":"2110","nombre_departamento":"puno","nombre_provincia":"san antonio de putina","nombre_distrito":"putina","capital":"putina"}},{"type":"Point","coordinates":[966440,182844],"id":"2109","properties":{"ubigeo":"2109","nombre_departamento":"puno","nombre_provincia":"moho","nombre_distrito":"moho","capital":"moho"}},{"type":"Point","coordinates":[969882,123970],"id":"2104","properties":{"ubigeo":"2104","nombre_departamento":"puno","nombre_provincia":"chucuito","nombre_distrito":"juli","capital":"juli"}},{"type":"Point","coordinates":[704329,354844],"id":"0809","properties":{"ubigeo":"0809","nombre_departamento":"cusco","nombre_provincia":"la convencion","nombre_distrito":"santa ana","capital":"quillabamba"}},{"type":"Point","coordinates":[751772,324413],"id":"0813","properties":{"ubigeo":"0813","nombre_departamento":"cusco","nombre_provincia":"urubamba","nombre_distrito":"urubamba","capital":"urubamba"}},{"type":"Point","coordinates":[764952,323238],"id":"0804","properties":{"ubigeo":"0804","nombre_departamento":"cusco","nombre_provincia":"calca","nombre_distrito":"calca","capital":"calca"}},{"type":"Point","coordinates":[794490,323513],"id":"0811","properties":{"ubigeo":"0811","nombre_departamento":"cusco","nombre_provincia":"paucartambo","nombre_distrito":"paucartambo","capital":"paucartambo"}},{"type":"Point","coordinates":[787347,282188],"id":"0802","properties":{"ubigeo":"0802","nombre_departamento":"cusco","nombre_provincia":"acomayo","nombre_distrito":"acomayo","capital":"acomayo"}},{"type":"Point","coordinates":[773505,293160],"id":"0810","properties":{"ubigeo":"0810","nombre_departamento":"cusco","nombre_provincia":"paruro","nombre_distrito":"paruro","capital":"paruro"}},{"type":"Point","coordinates":[808162,261437],"id":"0805","properties":{"ubigeo":"0805","nombre_departamento":"cusco","nombre_provincia":"canas","nombre_distrito":"yanaoca","capital":"yanaoca"}},{"type":"Point","coordinates":[754501,245614],"id":"0807","properties":{"ubigeo":"0807","nombre_departamento":"cusco","nombre_provincia":"chumbivilcas","nombre_distrito":"santo tomas","capital":"santo tomas"}},{"type":"Point","coordinates":[809544,221938],"id":"0808","properties":{"ubigeo":"0808","nombre_departamento":"cusco","nombre_provincia":"espinar","nombre_distrito":"espinar","capital":"espinar (yauri)"}},{"type":"Point","coordinates":[763137,309998],"id":"0801","properties":{"ubigeo":"0801","nombre_departamento":"cusco","nombre_provincia":"cusco","nombre_distrito":"cusco","capital":"cusco"}},{"type":"Point","coordinates":[348329,411189],"id":"1501","properties":{"ubigeo":"1501","nombre_departamento":"lima","nombre_provincia":"lima","nombre_distrito":"lima","capital":"lima cercado"}},{"type":"Point","coordinates":[220902,615878],"id":"0218","properties":{"ubigeo":"0218","nombre_departamento":"ancash","nombre_provincia":"santa","nombre_distrito":"chimbote","capital":"chimbote"}},{"type":"Point","coordinates":[439575,382692],"id":"1510","properties":{"ubigeo":"1510","nombre_departamento":"lima","nombre_provincia":"yauyos","nombre_distrito":"yauyos","capital":"yauyos"}},{"type":"Point","coordinates":[0,925561],"id":"2007","properties":{"ubigeo":"2007","nombre_departamento":"piura","nombre_provincia":"talara","nombre_distrito":"parinas","capital":"talara"}},{"type":"Point","coordinates":[960149,487112],"id":"1703","properties":{"ubigeo":"1703","nombre_departamento":"madre de dios","nombre_provincia":"tahuamanu","nombre_distrito":"inapari","capital":"inapari"}},{"type":"Point","coordinates":[813771,356659],"id":"1702","properties":{"ubigeo":"1702","nombre_departamento":"madre de dios","nombre_provincia":"manu","nombre_distrito":"manu","capital":"salvacion"}},{"type":"Point","coordinates":[121806,783739],"id":"1402","properties":{"ubigeo":"1402","nombre_departamento":"lambayeque","nombre_provincia":"ferrenafe","nombre_distrito":"ferrenafe","capital":"ferrenafe"}},{"type":"Point","coordinates":[36863,858360],"id":"2008","properties":{"ubigeo":"2008","nombre_departamento":"piura","nombre_provincia":"sechura","nombre_distrito":"sechura","capital":"sechura"}},{"type":"Point","coordinates":[391801,676611],"id":"2210","properties":{"ubigeo":"2210","nombre_departamento":"san martin","nombre_provincia":"tocache","nombre_distrito":"tocache","capital":"tocache nuevo"}},{"type":"Point","coordinates":[866693,568070],"id":"2504","properties":{"ubigeo":"2504","nombre_departamento":"ucayali","nombre_provincia":"purus","nombre_distrito":"purus","capital":"puerto esperanza"}},{"type":"Point","coordinates":[473082,618508],"id":"2503","properties":{"ubigeo":"2503","nombre_departamento":"ucayali","nombre_provincia":"padre abad","nombre_distrito":"padre abad","capital":"aguaytia"}},{"type":"Point","coordinates":[824801,257911],"id":"0806","properties":{"ubigeo":"0806","nombre_departamento":"cusco","nombre_provincia":"canchis","nombre_distrito":"sicuani","capital":"sicuani"}},{"type":"Point","coordinates":[333353,449201],"id":"1506","properties":{"ubigeo":"1506","nombre_departamento":"lima","nombre_provincia":"huaral","nombre_distrito":"huaral","capital":"huaral"}},{"type":"Point","coordinates":[301059,475899],"id":"1508","properties":{"ubigeo":"1508","nombre_departamento":"lima","nombre_provincia":"huaura","nombre_distrito":"huacho","capital":"huacho"}},{"type":"Point","coordinates":[883059,971836],"id":"1604","properties":{"ubigeo":"1604","nombre_departamento":"loreto","nombre_provincia":"mariscal ramon castilla","nombre_distrito":"ramon castilla","capital":"caballo cocha"}},{"type":"Point","coordinates":[511774,736519],"id":"1606","properties":{"ubigeo":"1606","nombre_departamento":"loreto","nombre_provincia":"ucayali","nombre_distrito":"contamana","capital":"contamana"}},{"type":"Point","coordinates":[311315,800551],"id":"0106","properties":{"ubigeo":"0106","nombre_departamento":"amazonas","nombre_provincia":"rodriguez de mendoza","nombre_distrito":"san nicolas","capital":"san nicolas"}},{"type":"Point","coordinates":[285554,834442],"id":"0103","properties":{"ubigeo":"0103","nombre_departamento":"amazonas","nombre_provincia":"bongara","nombre_distrito":"jumbilla","capital":"jumbilla"}},{"type":"Point","coordinates":[526083,387141],"id":"0907","properties":{"ubigeo":"0907","nombre_departamento":"huancavelica","nombre_provincia":"tayacaja","nombre_distrito":"pampas","capital":"pampas"}},{"type":"Point","coordinates":[367296,564179],"id":"1003","properties":{"ubigeo":"1003","nombre_departamento":"huanuco","nombre_provincia":"dos de mayo","nombre_distrito":"la union","capital":"la union"}},{"type":"Point","coordinates":[904940,51213],"id":"2302","properties":{"ubigeo":"2302","nombre_departamento":"tacna","nombre_provincia":"candarave","nombre_distrito":"candarave","capital":"candarave"}},{"type":"Point","coordinates":[923026,37165],"id":"2304","properties":{"ubigeo":"2304","nombre_departamento":"tacna","nombre_provincia":"tarata","nombre_distrito":"tarata","capital":"tarata"}},{"type":"Point","coordinates":[647796,300279],"id":"0302","properties":{"ubigeo":"0302","nombre_departamento":"apurimac","nombre_provincia":"andahuaylas","nombre_distrito":"andahuaylas","capital":"andahuaylas"}},{"type":"Point","coordinates":[620160,309830],"id":"0306","properties":{"ubigeo":"0306","nombre_departamento":"apurimac","nombre_provincia":"chincheros","nombre_distrito":"chincheros","capital":"chincheros"}},{"type":"Point","coordinates":[591796,293634],"id":"0510","properties":{"ubigeo":"0510","nombre_departamento":"ayacucho","nombre_provincia":"victor fajardo","nombre_distrito":"huancapi","capital":"huancapi"}},{"type":"Point","coordinates":[610361,275664],"id":"0509","properties":{"ubigeo":"0509","nombre_departamento":"ayacucho","nombre_provincia":"sucre","nombre_distrito":"querobamba","capital":"querobamba"}},{"type":"Point","coordinates":[569842,282286],"id":"0503","properties":{"ubigeo":"0503","nombre_departamento":"ayacucho","nombre_provincia":"huanca sancos","nombre_distrito":"sancos","capital":"sancos (huanca)"}},{"type":"Point","coordinates":[585445,302215],"id":"0502","properties":{"ubigeo":"0502","nombre_departamento":"ayacucho","nombre_provincia":"cangallo","nombre_distrito":"cangallo","capital":"cangallo"}},{"type":"Point","coordinates":[923410,149779],"id":"2101","properties":{"ubigeo":"2101","nombre_departamento":"puno","nombre_provincia":"puno","nombre_distrito":"puno","capital":"puno"}},{"type":"Point","coordinates":[914560,173667],"id":"2111","properties":{"ubigeo":"2111","nombre_departamento":"puno","nombre_provincia":"san roman","nombre_distrito":"juliaca","capital":"juliaca"}},{"type":"Point","coordinates":[945292,193790],"id":"2106","properties":{"ubigeo":"2106","nombre_departamento":"puno","nombre_provincia":"huancane","nombre_distrito":"huancane","capital":"huancane"}},{"type":"Point","coordinates":[895708,182630],"id":"2107","properties":{"ubigeo":"2107","nombre_departamento":"puno","nombre_provincia":"lampa","nombre_distrito":"lampa","capital":"lampa"}},{"type":"Point","coordinates":[999999,121771],"id":"2113","properties":{"ubigeo":"2113","nombre_departamento":"puno","nombre_provincia":"yunguyo","nombre_distrito":"yunguyo","capital":"yunguyo"}},{"type":"Point","coordinates":[955362,132816],"id":"2105","properties":{"ubigeo":"2105","nombre_departamento":"puno","nombre_provincia":"el collao","nombre_distrito":"ilave","capital":"ilave"}},{"type":"Point","coordinates":[909370,213723],"id":"2102","properties":{"ubigeo":"2102","nombre_departamento":"puno","nombre_provincia":"azangaro","nombre_distrito":"azangaro","capital":"azangaro"}},{"type":"Point","coordinates":[877283,215888],"id":"2108","properties":{"ubigeo":"2108","nombre_departamento":"puno","nombre_provincia":"melgar","nombre_distrito":"ayaviri","capital":"ayaviri"}},{"type":"Point","coordinates":[792350,298349],"id":"0812","properties":{"ubigeo":"0812","nombre_departamento":"cusco","nombre_provincia":"quispicanchi","nombre_distrito":"urcos","capital":"urcos"}},{"type":"Point","coordinates":[749596,313433],"id":"0803","properties":{"ubigeo":"0803","nombre_departamento":"cusco","nombre_provincia":"anta","nombre_distrito":"anta","capital":"anta"}},{"type":"Point","coordinates":[688325,193140],"id":"0408","properties":{"ubigeo":"0408","nombre_departamento":"arequipa","nombre_provincia":"la union","nombre_distrito":"cotahuasi","capital":"cotahuasi"}},{"type":"Point","coordinates":[651196,188352],"id":"0508","properties":{"ubigeo":"0508","nombre_departamento":"ayacucho","nombre_provincia":"paucar del sara sara","nombre_distrito":"pausa","capital":"pausa"}},{"type":"Point","coordinates":[689431,251431],"id":"0303","properties":{"ubigeo":"0303","nombre_departamento":"apurimac","nombre_provincia":"antabamba","nombre_distrito":"antabamba","capital":"antambamba"}},{"type":"Point","coordinates":[703316,269409],"id":"0307","properties":{"ubigeo":"0307","nombre_departamento":"apurimac","nombre_provincia":"grau","nombre_distrito":"chuquibambilla","capital":"chuquibambilla"}},{"type":"Point","coordinates":[845896,92351],"id":"mogral","properties":{"ubigeo":"mogral","nombre_departamento":"moquegua","nombre_provincia":"gral.sanchez cerro","nombre_distrito":"omate","capital":"omate"}},{"type":"Point","coordinates":[890334,271864],"id":"2103","properties":{"ubigeo":"2103","nombre_departamento":"puno","nombre_provincia":"carabaya","nombre_distrito":"macusani","capital":"macusani"}},{"type":"Point","coordinates":[969618,254323],"id":"2112","properties":{"ubigeo":"2112","nombre_departamento":"puno","nombre_provincia":"sandia","nombre_distrito":"sandia","capital":"sandia"}},{"type":"Point","coordinates":[721059,133539],"id":"0404","properties":{"ubigeo":"0404","nombre_departamento":"arequipa","nombre_provincia":"castilla","nombre_distrito":"aplao","capital":"aplao"}}],"bbox":[-81.27481,-18.01447,-69.09521,-3.501]}},"arcs":[],"bbox":[-81.27481,-18.01447,-69.09521,-3.501],"transform":{"scale":[0.000012179612179612188,0.000014513484513484514],"translate":[-81.27481,-18.01447]},"metadata":{"fuente":"IDE-INEI https://ide.inei.gob.pe/files/{Departamento,Provincia,Distrito}.rar","descarga_last_modified":"2026-03-06","portal":"Límites departamental, provincial y distrital actualizados al 2023 (ide.inei.gob.pe)","atributo_fuente_gpkg":"V Censo Nacional Economico","crs":"EPSG:4326","rfc":"RFC 7946 (sin miembro crs; WGS84 implícito)","precision_decimales":6,"simplificacion_grados":0.0005,"simplificacion_preview_grados":0.005,"capitales":"El GPKG no incluye capital. Departamento: sede oficial. Provincia: union por nombre con peru_capital_provincia.geojson (IDEP-2016). Distrito: NOM_CAP de peru_distrital_simple.geojson cuando el ubigeo coincide.","generado_por":"scripts/derive.mjs","compatibilidad":"Los archivos de la raíz no se modifican. En el validado, NOMBDEP, FIRST_IDDP, NOMBPROV, FIRST_IDPR, NOMBDIST, IDDIST, IDDPTO, IDPROV y NOM_CAP se conservan como alias.","variante":"topojson","objeto":"peru","cuantizacion":1000000}}