{"type":"FeatureCollection","bbox":[-81.27481,-18.01447,-69.09521,-3.501],"metadata":{"fuente":"IDE-INEI https://ide.inei.gob.pe/files/{Departamento,Provincia,Distrito}.rar","descarga_last_modified":"2026-03-06","portal":"Límites departamental, provincial y distrital actualizados al 2023 (ide.inei.gob.pe)","atributo_fuente_gpkg":"V Censo Nacional Economico","crs":"EPSG:4326","rfc":"RFC 7946 (sin miembro crs; WGS84 implícito)","precision_decimales":6,"simplificacion_grados":0.0005,"simplificacion_preview_grados":0.005,"capitales":"El GPKG no incluye capital. Departamento: sede oficial. Provincia: union por nombre con peru_capital_provincia.geojson (IDEP-2016). Distrito: NOM_CAP de peru_distrital_simple.geojson cuando el ubigeo coincide.","generado_por":"scripts/normalize_geojson.py","compatibilidad":"Los archivos de la raíz no se modifican. En el validado, NOMBDEP, FIRST_IDDP, NOMBPROV, FIRST_IDPR, NOMBDIST, IDDIST, IDDPTO, IDPROV y NOM_CAP se conservan como alias.","variante":"min"},"features":[{"type":"Feature","id":"0215","properties":{"ubigeo":"0215","nombre_departamento":"ancash","nombre_provincia":"pallasca","nombre_distrito":"cabana","capital":"cabana"},"geometry":{"type":"Point","coordinates":[-78.0111,-8.39312]}},{"type":"Feature","id":"1401","properties":{"ubigeo":"1401","nombre_departamento":"lambayeque","nombre_provincia":"chiclayo","nombre_distrito":"chiclayo","capital":"chiclayo"},"geometry":{"type":"Point","coordinates":[-79.83987,-6.77369]}},{"type":"Feature","id":"1403","properties":{"ubigeo":"1403","nombre_departamento":"lambayeque","nombre_provincia":"lambayeque","nombre_distrito":"lambayeque","capital":"lambayeque"},"geometry":{"type":"Point","coordinates":[-79.90942,-6.7025]}},{"type":"Feature","id":"0205","properties":{"ubigeo":"0205","nombre_departamento":"ancash","nombre_provincia":"bolognesi","nombre_distrito":"chiquian","capital":"chiquian"},"geometry":{"type":"Point","coordinates":[-77.15876,-10.1519]}},{"type":"Feature","id":"0214","properties":{"ubigeo":"0214","nombre_departamento":"ancash","nombre_provincia":"ocros","nombre_distrito":"ocros","capital":"ocros"},"geometry":{"type":"Point","coordinates":[-77.39838,-10.40306]}},{"type":"Feature","id":"1010","properties":{"ubigeo":"1010","nombre_departamento":"huanuco","nombre_provincia":"lauricocha","nombre_distrito":"jesus","capital":"jesus"},"geometry":{"type":"Point","coordinates":[-76.63314,-10.07964]}},{"type":"Feature","id":"1503","properties":{"ubigeo":"1503","nombre_departamento":"lima","nombre_provincia":"cajatambo","nombre_distrito":"cajatambo","capital":"cajatambo"},"geometry":{"type":"Point","coordinates":[-76.99528,-10.47302]}},{"type":"Feature","id":"1902","properties":{"ubigeo":"1902","nombre_departamento":"pasco","nombre_provincia":"daniel alcides carrion","nombre_distrito":"yanahuanca","capital":"yanahuanca"},"geometry":{"type":"Point","coordinates":[-76.51974,-10.49279]}},{"type":"Feature","id":"1502","properties":{"ubigeo":"1502","nombre_departamento":"lima","nombre_provincia":"barranca","nombre_distrito":"barranca","capital":"barranca"},"geometry":{"type":"Point","coordinates":[-77.76298,-10.75406]}},{"type":"Feature","id":"1509","properties":{"ubigeo":"1509","nombre_departamento":"lima","nombre_provincia":"oyon","nombre_distrito":"oyon","capital":"oyon"},"geometry":{"type":"Point","coordinates":[-76.77581,-10.6692]}},{"type":"Feature","id":"0701","properties":{"ubigeo":"0701","nombre_departamento":"callao","nombre_provincia":"callao","nombre_distrito":"callao","capital":"callao"},"geometry":{"type":"Point","coordinates":[-77.14931,-12.06051]}},{"type":"Feature","id":"1209","properties":{"ubigeo":"1209","nombre_departamento":"junin","nombre_provincia":"chupaca","nombre_distrito":"chupaca","capital":"chupaca"},"geometry":{"type":"Point","coordinates":[-75.29198,-12.06091]}},{"type":"Feature","id":"1507","properties":{"ubigeo":"1507","nombre_departamento":"lima","nombre_provincia":"huarochiri","nombre_distrito":"matucana","capital":"matucana"},"geometry":{"type":"Point","coordinates":[-76.38837,-11.84593]}},{"type":"Feature","id":"1201","properties":{"ubigeo":"1201","nombre_departamento":"junin","nombre_provincia":"huancayo","nombre_distrito":"huancayo","capital":"huancayo"},"geometry":{"type":"Point","coordinates":[-75.2141,-12.07037]}},{"type":"Feature","id":"1505","properties":{"ubigeo":"1505","nombre_departamento":"lima","nombre_provincia":"canete","nombre_distrito":"san vicente de canete","capital":"san vicente de canete"},"geometry":{"type":"Point","coordinates":[-76.38914,-13.08047]}},{"type":"Feature","id":"1102","properties":{"ubigeo":"1102","nombre_departamento":"ica","nombre_provincia":"chincha","nombre_distrito":"chincha alta","capital":"chincha alta"},"geometry":{"type":"Point","coordinates":[-76.13568,-13.42019]}},{"type":"Feature","id":"0211","properties":{"ubigeo":"0211","nombre_departamento":"ancash","nombre_provincia":"huarmey","nombre_distrito":"huarmey","capital":"huarmey"},"geometry":{"type":"Point","coordinates":[-78.15434,-10.07021]}},{"type":"Feature","id":"0208","properties":{"ubigeo":"0208","nombre_departamento":"ancash","nombre_provincia":"casma","nombre_distrito":"casma","capital":"casma"},"geometry":{"type":"Point","coordinates":[-78.30884,-9.47696]}},{"type":"Feature","id":"1101","properties":{"ubigeo":"1101","nombre_departamento":"ica","nombre_provincia":"ica","nombre_distrito":"ica","capital":"ica"},"geometry":{"type":"Point","coordinates":[-75.7282,-14.07071]}},{"type":"Feature","id":"1105","properties":{"ubigeo":"1105","nombre_departamento":"ica","nombre_provincia":"pisco","nombre_distrito":"pisco","capital":"pisco"},"geometry":{"type":"Point","coordinates":[-76.20448,-13.71173]}},{"type":"Feature","id":"0209","properties":{"ubigeo":"0209","nombre_departamento":"ancash","nombre_provincia":"corongo","nombre_distrito":"corongo","capital":"corongo"},"geometry":{"type":"Point","coordinates":[-77.90071,-8.57137]}},{"type":"Feature","id":"0213","properties":{"ubigeo":"0213","nombre_departamento":"ancash","nombre_provincia":"mariscal luzuriaga","nombre_distrito":"piscobamba","capital":"piscobamba"},"geometry":{"type":"Point","coordinates":[-77.36073,-8.8663]}},{"type":"Feature","id":"0216","properties":{"ubigeo":"0216","nombre_departamento":"ancash","nombre_provincia":"pomabamba","nombre_distrito":"pomabamba","capital":"pomabamba"},"geometry":{"type":"Point","coordinates":[-77.46245,-8.82221]}},{"type":"Feature","id":"0219","properties":{"ubigeo":"0219","nombre_departamento":"ancash","nombre_provincia":"sihuas","nombre_distrito":"sihuas","capital":"sihuas"},"geometry":{"type":"Point","coordinates":[-77.63452,-8.55563]}},{"type":"Feature","id":"1007","properties":{"ubigeo":"1007","nombre_departamento":"huanuco","nombre_provincia":"maranon","nombre_distrito":"huacrachuco","capital":"huacrachuco"},"geometry":{"type":"Point","coordinates":[-77.14935,-8.60789]}},{"type":"Feature","id":"0201","properties":{"ubigeo":"0201","nombre_departamento":"ancash","nombre_provincia":"huaraz","nombre_distrito":"huaraz","capital":"huaraz"},"geometry":{"type":"Point","coordinates":[-77.52971,-9.53232]}},{"type":"Feature","id":"0206","properties":{"ubigeo":"0206","nombre_departamento":"ancash","nombre_provincia":"carhuaz","nombre_distrito":"carhuaz","capital":"carhuaz"},"geometry":{"type":"Point","coordinates":[-77.64711,-9.28204]}},{"type":"Feature","id":"0212","properties":{"ubigeo":"0212","nombre_departamento":"ancash","nombre_provincia":"huaylas","nombre_distrito":"caraz","capital":"caraz"},"geometry":{"type":"Point","coordinates":[-77.81446,-9.04781]}},{"type":"Feature","id":"0220","properties":{"ubigeo":"0220","nombre_departamento":"ancash","nombre_provincia":"yungay","nombre_distrito":"yungay","capital":"yungay"},"geometry":{"type":"Point","coordinates":[-77.74757,-9.13764]}},{"type":"Feature","id":"0202","properties":{"ubigeo":"0202","nombre_departamento":"ancash","nombre_provincia":"aija","nombre_distrito":"aija","capital":"aija"},"geometry":{"type":"Point","coordinates":[-77.61151,-9.78212]}},{"type":"Feature","id":"0203","properties":{"ubigeo":"0203","nombre_departamento":"ancash","nombre_provincia":"antonio raymondi","nombre_distrito":"llamellin","capital":"llamellin"},"geometry":{"type":"Point","coordinates":[-77.01837,-9.10077]}},{"type":"Feature","id":"0204","properties":{"ubigeo":"0204","nombre_departamento":"ancash","nombre_provincia":"asuncion","nombre_distrito":"chacas","capital":"chacas"},"geometry":{"type":"Point","coordinates":[-77.36967,-9.16232]}},{"type":"Feature","id":"ancarl","properties":{"ubigeo":"ancarl","nombre_departamento":"ancash","nombre_provincia":"carlos f.fitzcarrald","nombre_distrito":"san luis","capital":"san luis"},"geometry":{"type":"Point","coordinates":[-77.33243,-9.0934]}},{"type":"Feature","id":"0210","properties":{"ubigeo":"0210","nombre_departamento":"ancash","nombre_provincia":"huari","nombre_distrito":"huari","capital":"huari"},"geometry":{"type":"Point","coordinates":[-77.17616,-9.349]}},{"type":"Feature","id":"0217","properties":{"ubigeo":"0217","nombre_departamento":"ancash","nombre_provincia":"recuay","nombre_distrito":"recuay","capital":"recuay"},"geometry":{"type":"Point","coordinates":[-77.45911,-9.71979]}},{"type":"Feature","id":"1004","properties":{"ubigeo":"1004","nombre_departamento":"huanuco","nombre_provincia":"huacaybamba","nombre_distrito":"huacaybamba","capital":"huacaybamba"},"geometry":{"type":"Point","coordinates":[-76.95707,-9.03828]}},{"type":"Feature","id":"1005","properties":{"ubigeo":"1005","nombre_departamento":"huanuco","nombre_provincia":"huamalies","nombre_distrito":"llata","capital":"llata"},"geometry":{"type":"Point","coordinates":[-76.81898,-9.54994]}},{"type":"Feature","id":"1701","properties":{"ubigeo":"1701","nombre_departamento":"madre de dios","nombre_provincia":"tambopata","nombre_distrito":"tambopata","capital":"puerto maldonado"},"geometry":{"type":"Point","coordinates":[-69.18762,-12.59742]}},{"type":"Feature","id":"1011","properties":{"ubigeo":"1011","nombre_departamento":"huanuco","nombre_provincia":"yarowilca","nombre_distrito":"chavinillo","capital":"chavinillo"},"geometry":{"type":"Point","coordinates":[-76.60904,-9.85704]}},{"type":"Feature","id":"1801","properties":{"ubigeo":"1801","nombre_departamento":"moquegua","nombre_provincia":"mariscal nieto","nombre_distrito":"moquegua","capital":"moquegua"},"geometry":{"type":"Point","coordinates":[-70.93721,-17.19522]}},{"type":"Feature","id":"1803","properties":{"ubigeo":"1803","nombre_departamento":"moquegua","nombre_provincia":"ilo","nombre_distrito":"ilo","capital":"ilo"},"geometry":{"type":"Point","coordinates":[-71.34521,-17.64458]}},{"type":"Feature","id":"0107","properties":{"ubigeo":"0107","nombre_departamento":"amazonas","nombre_provincia":"utcubamba","nombre_distrito":"bagua grande","capital":"bagua grande"},"geometry":{"type":"Point","coordinates":[-78.44291,-5.7561]}},{"type":"Feature","id":"0104","properties":{"ubigeo":"0104","nombre_departamento":"amazonas","nombre_provincia":"condorcanqui","nombre_distrito":"nieva","capital":"santa maria de nieva"},"geometry":{"type":"Point","coordinates":[-77.8742,-4.59696]}},{"type":"Feature","id":"1601","properties":{"ubigeo":"1601","nombre_departamento":"loreto","nombre_provincia":"maynas","nombre_distrito":"iquitos","capital":"iquitos"},"geometry":{"type":"Point","coordinates":[-73.26218,-3.74993]}},{"type":"Feature","id":"1603","properties":{"ubigeo":"1603","nombre_departamento":"loreto","nombre_provincia":"loreto","nombre_distrito":"nauta","capital":"nauta"},"geometry":{"type":"Point","coordinates":[-73.57835,-4.50583]}},{"type":"Feature","id":"0101","properties":{"ubigeo":"0101","nombre_departamento":"amazonas","nombre_provincia":"chachapoyas","nombre_distrito":"chachapoyas","capital":"chachapoyas"},"geometry":{"type":"Point","coordinates":[-77.86351,-6.23105]}},{"type":"Feature","id":"0105","properties":{"ubigeo":"0105","nombre_departamento":"amazonas","nombre_provincia":"luya","nombre_distrito":"lamud","capital":"lamud"},"geometry":{"type":"Point","coordinates":[-77.95528,-6.13681]}},{"type":"Feature","id":"1602","properties":{"ubigeo":"1602","nombre_departamento":"loreto","nombre_provincia":"alto amazonas","nombre_distrito":"yurimaguas","capital":"yurimaguas"},"geometry":{"type":"Point","coordinates":[-76.10963,-5.8946]}},{"type":"Feature","id":"1605","properties":{"ubigeo":"1605","nombre_departamento":"loreto","nombre_provincia":"requena","nombre_distrito":"requena","capital":"requena"},"geometry":{"type":"Point","coordinates":[-73.85275,-5.05908]}},{"type":"Feature","id":"2201","properties":{"ubigeo":"2201","nombre_departamento":"san martin","nombre_provincia":"moyobamba","nombre_distrito":"moyobamba","capital":"moyobamba"},"geometry":{"type":"Point","coordinates":[-76.97251,-6.03309]}},{"type":"Feature","id":"2203","properties":{"ubigeo":"2203","nombre_departamento":"san martin","nombre_provincia":"el dorado","nombre_distrito":"san jose de sisa","capital":"san jose de sisa"},"geometry":{"type":"Point","coordinates":[-76.6973,-6.61796]}},{"type":"Feature","id":"2204","properties":{"ubigeo":"2204","nombre_departamento":"san martin","nombre_provincia":"huallaga","nombre_distrito":"saposoa","capital":"saposoa"},"geometry":{"type":"Point","coordinates":[-76.77346,-6.93415]}},{"type":"Feature","id":"2205","properties":{"ubigeo":"2205","nombre_departamento":"san martin","nombre_provincia":"lamas","nombre_distrito":"lamas","capital":"lamas"},"geometry":{"type":"Point","coordinates":[-76.52131,-6.42169]}},{"type":"Feature","id":"2207","properties":{"ubigeo":"2207","nombre_departamento":"san martin","nombre_provincia":"picota","nombre_distrito":"picota","capital":"picota"},"geometry":{"type":"Point","coordinates":[-76.3317,-6.9195]}},{"type":"Feature","id":"2208","properties":{"ubigeo":"2208","nombre_departamento":"san martin","nombre_provincia":"rioja","nombre_distrito":"rioja","capital":"rioja"},"geometry":{"type":"Point","coordinates":[-77.17081,-6.06229]}},{"type":"Feature","id":"2209","properties":{"ubigeo":"2209","nombre_departamento":"san martin","nombre_provincia":"san martin","nombre_distrito":"tarapoto","capital":"tarapoto"},"geometry":{"type":"Point","coordinates":[-76.36512,-6.48895]}},{"type":"Feature","id":"2202","properties":{"ubigeo":"2202","nombre_departamento":"san martin","nombre_provincia":"bellavista","nombre_distrito":"bellavista","capital":"bellavista"},"geometry":{"type":"Point","coordinates":[-76.59079,-7.05936]}},{"type":"Feature","id":"2206","properties":{"ubigeo":"2206","nombre_departamento":"san martin","nombre_provincia":"mariscal caceres","nombre_distrito":"juanjui","capital":"juanjui"},"geometry":{"type":"Point","coordinates":[-76.73192,-7.1821]}},{"type":"Feature","id":"1001","properties":{"ubigeo":"1001","nombre_departamento":"huanuco","nombre_provincia":"huanuco","nombre_distrito":"huanuco","capital":"huanuco"},"geometry":{"type":"Point","coordinates":[-76.24511,-9.92783]}},{"type":"Feature","id":"1006","properties":{"ubigeo":"1006","nombre_departamento":"huanuco","nombre_provincia":"leoncio prado","nombre_distrito":"rupa-rupa","capital":"tingo maria"},"geometry":{"type":"Point","coordinates":[-75.99961,-9.29569]}},{"type":"Feature","id":"1009","properties":{"ubigeo":"1009","nombre_departamento":"huanuco","nombre_provincia":"puerto inca","nombre_distrito":"puerto inca","capital":"puerto inca"},"geometry":{"type":"Point","coordinates":[-74.96786,-9.37714]}},{"type":"Feature","id":"1008","properties":{"ubigeo":"1008","nombre_departamento":"huanuco","nombre_provincia":"pachitea","nombre_distrito":"panao","capital":"panao"},"geometry":{"type":"Point","coordinates":[-75.99594,-9.89933]}},{"type":"Feature","id":"1002","properties":{"ubigeo":"1002","nombre_departamento":"huanuco","nombre_provincia":"ambo","nombre_distrito":"ambo","capital":"ambo"},"geometry":{"type":"Point","coordinates":[-76.20709,-10.13031]}},{"type":"Feature","id":"1901","properties":{"ubigeo":"1901","nombre_departamento":"pasco","nombre_provincia":"pasco","nombre_distrito":"chaupimarca","capital":"cerro de pasco"},"geometry":{"type":"Point","coordinates":[-76.26095,-10.68122]}},{"type":"Feature","id":"1205","properties":{"ubigeo":"1205","nombre_departamento":"junin","nombre_provincia":"junin","nombre_distrito":"junin","capital":"junin"},"geometry":{"type":"Point","coordinates":[-75.99829,-11.16582]}},{"type":"Feature","id":"1903","properties":{"ubigeo":"1903","nombre_departamento":"pasco","nombre_provincia":"oxapampa","nombre_distrito":"oxapampa","capital":"oxapampa"},"geometry":{"type":"Point","coordinates":[-75.40703,-10.57812]}},{"type":"Feature","id":"1202","properties":{"ubigeo":"1202","nombre_departamento":"junin","nombre_provincia":"concepcion","nombre_distrito":"concepcion","capital":"concepcion"},"geometry":{"type":"Point","coordinates":[-75.31637,-11.91822]}},{"type":"Feature","id":"1203","properties":{"ubigeo":"1203","nombre_departamento":"junin","nombre_provincia":"chanchamayo","nombre_distrito":"chanchamayo","capital":"la merced"},"geometry":{"type":"Point","coordinates":[-75.32925,-11.05599]}},{"type":"Feature","id":"1204","properties":{"ubigeo":"1204","nombre_departamento":"junin","nombre_provincia":"jauja","nombre_distrito":"jauja","capital":"jauja"},"geometry":{"type":"Point","coordinates":[-75.4994,-11.77636]}},{"type":"Feature","id":"1207","properties":{"ubigeo":"1207","nombre_departamento":"junin","nombre_provincia":"tarma","nombre_distrito":"tarma","capital":"tarma"},"geometry":{"type":"Point","coordinates":[-75.69104,-11.42073]}},{"type":"Feature","id":"1208","properties":{"ubigeo":"1208","nombre_departamento":"junin","nombre_provincia":"yauli","nombre_distrito":"la oroya","capital":"la oroya"},"geometry":{"type":"Point","coordinates":[-75.90177,-11.52066]}},{"type":"Feature","id":"1206","properties":{"ubigeo":"1206","nombre_departamento":"junin","nombre_provincia":"satipo","nombre_distrito":"satipo","capital":"satipo"},"geometry":{"type":"Point","coordinates":[-74.6386,-11.24928]}},{"type":"Feature","id":"1104","properties":{"ubigeo":"1104","nombre_departamento":"ica","nombre_provincia":"palpa","nombre_distrito":"palpa","capital":"palpa"},"geometry":{"type":"Point","coordinates":[-75.18869,-14.53537]}},{"type":"Feature","id":"2005","properties":{"ubigeo":"2005","nombre_departamento":"piura","nombre_provincia":"paita","nombre_distrito":"paita","capital":"paita"},"geometry":{"type":"Point","coordinates":[-81.11657,-5.08837]}},{"type":"Feature","id":"icnazc","properties":{"ubigeo":"icnazc","nombre_departamento":"ica","nombre_provincia":"nazca","nombre_distrito":"nazca","capital":"nazca"},"geometry":{"type":"Point","coordinates":[-74.94076,-14.82759]}},{"type":"Feature","id":"2006","properties":{"ubigeo":"2006","nombre_departamento":"piura","nombre_provincia":"sullana","nombre_distrito":"sullana","capital":"sullana"},"geometry":{"type":"Point","coordinates":[-80.69103,-4.89196]}},{"type":"Feature","id":"2001","properties":{"ubigeo":"2001","nombre_departamento":"piura","nombre_provincia":"piura","nombre_distrito":"piura","capital":"piura"},"geometry":{"type":"Point","coordinates":[-80.62973,-5.19598]}},{"type":"Feature","id":"2002","properties":{"ubigeo":"2002","nombre_departamento":"piura","nombre_provincia":"ayabaca","nombre_distrito":"ayabaca","capital":"ayabaca"},"geometry":{"type":"Point","coordinates":[-79.71853,-4.64064]}},{"type":"Feature","id":"2004","properties":{"ubigeo":"2004","nombre_departamento":"piura","nombre_provincia":"morropon","nombre_distrito":"chulucanas","capital":"chulucanas"},"geometry":{"type":"Point","coordinates":[-80.16423,-5.09714]}},{"type":"Feature","id":"2003","properties":{"ubigeo":"2003","nombre_departamento":"piura","nombre_provincia":"huancabamba","nombre_distrito":"huancabamba","capital":"huancabamba"},"geometry":{"type":"Point","coordinates":[-79.45141,-5.24083]}},{"type":"Feature","id":"0102","properties":{"ubigeo":"0102","nombre_departamento":"amazonas","nombre_provincia":"bagua","nombre_distrito":"la peca","capital":"bagua"},"geometry":{"type":"Point","coordinates":[-78.53631,-5.63842]}},{"type":"Feature","id":"1301","properties":{"ubigeo":"1301","nombre_departamento":"la libertad","nombre_provincia":"trujillo","nombre_distrito":"trujillo","capital":"trujillo"},"geometry":{"type":"Point","coordinates":[-79.03348,-8.1095]}},{"type":"Feature","id":"1305","properties":{"ubigeo":"1305","nombre_departamento":"la libertad","nombre_provincia":"julcan","nombre_distrito":"julcan","capital":"julcan"},"geometry":{"type":"Point","coordinates":[-78.48905,-8.04207]}},{"type":"Feature","id":"1307","properties":{"ubigeo":"1307","nombre_departamento":"la libertad","nombre_provincia":"pacasmayo","nombre_distrito":"san pedro de lloc","capital":"san pedro de lloc"},"geometry":{"type":"Point","coordinates":[-79.50711,-7.43262]}},{"type":"Feature","id":"1310","properties":{"ubigeo":"1310","nombre_departamento":"la libertad","nombre_provincia":"santiago de chuco","nombre_distrito":"santiago de chuco","capital":"santiago de chuco"},"geometry":{"type":"Point","coordinates":[-78.17856,-8.14574]}},{"type":"Feature","id":"1312","properties":{"ubigeo":"1312","nombre_departamento":"la libertad","nombre_provincia":"viru","nombre_distrito":"viru","capital":"viru"},"geometry":{"type":"Point","coordinates":[-78.75449,-8.41636]}},{"type":"Feature","id":"1308","properties":{"ubigeo":"1308","nombre_departamento":"la libertad","nombre_provincia":"pataz","nombre_distrito":"tayabamba","capital":"tayabamba"},"geometry":{"type":"Point","coordinates":[-77.29884,-8.27704]}},{"type":"Feature","id":"1302","properties":{"ubigeo":"1302","nombre_departamento":"la libertad","nombre_provincia":"ascope","nombre_distrito":"ascope","capital":"ascope"},"geometry":{"type":"Point","coordinates":[-79.1102,-7.71584]}},{"type":"Feature","id":"1304","properties":{"ubigeo":"1304","nombre_departamento":"la libertad","nombre_provincia":"chepen","nombre_distrito":"chepen","capital":"chepen"},"geometry":{"type":"Point","coordinates":[-79.43186,-7.22838]}},{"type":"Feature","id":"1306","properties":{"ubigeo":"1306","nombre_departamento":"la libertad","nombre_provincia":"otuzco","nombre_distrito":"otuzco","capital":"otuzco"},"geometry":{"type":"Point","coordinates":[-78.56702,-7.90234]}},{"type":"Feature","id":"1311","properties":{"ubigeo":"1311","nombre_departamento":"la libertad","nombre_provincia":"gran chimu","nombre_distrito":"cascas","capital":"cascas"},"geometry":{"type":"Point","coordinates":[-78.82084,-7.47893]}},{"type":"Feature","id":"1303","properties":{"ubigeo":"1303","nombre_departamento":"la libertad","nombre_provincia":"bolivar","nombre_distrito":"bolivar","capital":"bolivar"},"geometry":{"type":"Point","coordinates":[-77.70448,-7.15473]}},{"type":"Feature","id":"1309","properties":{"ubigeo":"1309","nombre_departamento":"la libertad","nombre_provincia":"sanchez carrion","nombre_distrito":"huamachuco","capital":"huamachuco"},"geometry":{"type":"Point","coordinates":[-78.05275,-7.81549]}},{"type":"Feature","id":"0501","properties":{"ubigeo":"0501","nombre_departamento":"ayacucho","nombre_provincia":"huamanga","nombre_distrito":"ayacucho","capital":"ayacucho"},"geometry":{"type":"Point","coordinates":[-74.22667,-13.16055]}},{"type":"Feature","id":"0504","properties":{"ubigeo":"0504","nombre_departamento":"ayacucho","nombre_provincia":"huanta","nombre_distrito":"huanta","capital":"huanta"},"geometry":{"type":"Point","coordinates":[-74.25141,-12.93835]}},{"type":"Feature","id":"0505","properties":{"ubigeo":"0505","nombre_departamento":"ayacucho","nombre_provincia":"la mar","nombre_distrito":"san miguel","capital":"san miguel"},"geometry":{"type":"Point","coordinates":[-73.98315,-13.01317]}},{"type":"Feature","id":"0506","properties":{"ubigeo":"0506","nombre_departamento":"ayacucho","nombre_provincia":"lucanas","nombre_distrito":"puquio","capital":"puquio"},"geometry":{"type":"Point","coordinates":[-74.12853,-14.6916]}},{"type":"Feature","id":"0507","properties":{"ubigeo":"0507","nombre_departamento":"ayacucho","nombre_provincia":"parinacochas","nombre_distrito":"coracora","capital":"coracora"},"geometry":{"type":"Point","coordinates":[-73.78198,-15.0163]}},{"type":"Feature","id":"0511","properties":{"ubigeo":"0511","nombre_departamento":"ayacucho","nombre_provincia":"vilcas huaman","nombre_distrito":"vilcas huaman","capital":"vilcas huaman"},"geometry":{"type":"Point","coordinates":[-73.95557,-13.6543]}},{"type":"Feature","id":"0403","properties":{"ubigeo":"0403","nombre_departamento":"arequipa","nombre_provincia":"caraveli","nombre_distrito":"caraveli","capital":"caraveli"},"geometry":{"type":"Point","coordinates":[-73.36824,-15.77279]}},{"type":"Feature","id":"0406","properties":{"ubigeo":"0406","nombre_departamento":"arequipa","nombre_provincia":"condesuyos","nombre_distrito":"chuquibamba","capital":"chuquibamba"},"geometry":{"type":"Point","coordinates":[-72.65426,-15.83982]}},{"type":"Feature","id":"0402","properties":{"ubigeo":"0402","nombre_departamento":"arequipa","nombre_provincia":"camana","nombre_distrito":"camana","capital":"camana"},"geometry":{"type":"Point","coordinates":[-72.71141,-16.62378]}},{"type":"Feature","id":"0407","properties":{"ubigeo":"0407","nombre_departamento":"arequipa","nombre_provincia":"islay","nombre_distrito":"mollendo","capital":"mollendo"},"geometry":{"type":"Point","coordinates":[-72.01812,-17.02514]}},{"type":"Feature","id":"0405","properties":{"ubigeo":"0405","nombre_departamento":"arequipa","nombre_provincia":"caylloma","nombre_distrito":"chivay","capital":"chivay"},"geometry":{"type":"Point","coordinates":[-71.60361,-15.64024]}},{"type":"Feature","id":"0401","properties":{"ubigeo":"0401","nombre_departamento":"arequipa","nombre_provincia":"arequipa","nombre_distrito":"arequipa","capital":"arequipa"},"geometry":{"type":"Point","coordinates":[-71.53793,-16.40102]}},{"type":"Feature","id":"2402","properties":{"ubigeo":"2402","nombre_departamento":"tumbes","nombre_provincia":"contralmirante villar","nombre_distrito":"zorritos","capital":"zorritos"},"geometry":{"type":"Point","coordinates":[-80.66272,-3.67303]}},{"type":"Feature","id":"2401","properties":{"ubigeo":"2401","nombre_departamento":"tumbes","nombre_provincia":"tumbes","nombre_distrito":"tumbes","capital":"tumbes"},"geometry":{"type":"Point","coordinates":[-80.45388,-3.56473]}},{"type":"Feature","id":"2403","properties":{"ubigeo":"2403","nombre_departamento":"tumbes","nombre_provincia":"zarumilla","nombre_distrito":"zarumilla","capital":"zarumilla"},"geometry":{"type":"Point","coordinates":[-80.27721,-3.501]}},{"type":"Feature","id":"2303","properties":{"ubigeo":"2303","nombre_departamento":"tacna","nombre_provincia":"jorge basadre","nombre_distrito":"locumba","capital":"locumba"},"geometry":{"type":"Point","coordinates":[-70.76614,-17.61437]}},{"type":"Feature","id":"2301","properties":{"ubigeo":"2301","nombre_departamento":"tacna","nombre_provincia":"tacna","nombre_distrito":"tacna","capital":"tacna"},"geometry":{"type":"Point","coordinates":[-70.25581,-18.01447]}},{"type":"Feature","id":"0901","properties":{"ubigeo":"0901","nombre_departamento":"huancavelica","nombre_provincia":"huancavelica","nombre_distrito":"huancavelica","capital":"huancavelica"},"geometry":{"type":"Point","coordinates":[-74.97594,-12.78842]}},{"type":"Feature","id":"0902","properties":{"ubigeo":"0902","nombre_departamento":"huancavelica","nombre_provincia":"acobamba","nombre_distrito":"acobamba","capital":"acobamba"},"geometry":{"type":"Point","coordinates":[-74.5719,-12.84306]}},{"type":"Feature","id":"0903","properties":{"ubigeo":"0903","nombre_departamento":"huancavelica","nombre_provincia":"angaraes","nombre_distrito":"lircay","capital":"lircay"},"geometry":{"type":"Point","coordinates":[-74.72047,-12.98422]}},{"type":"Feature","id":"0904","properties":{"ubigeo":"0904","nombre_departamento":"huancavelica","nombre_provincia":"castrovirreyna","nombre_distrito":"castrovirreyna","capital":"castrovirreyna"},"geometry":{"type":"Point","coordinates":[-75.32089,-13.28484]}},{"type":"Feature","id":"0906","properties":{"ubigeo":"0906","nombre_departamento":"huancavelica","nombre_provincia":"huaytara","nombre_distrito":"huaytara","capital":"huaytara"},"geometry":{"type":"Point","coordinates":[-75.35525,-13.60516]}},{"type":"Feature","id":"0905","properties":{"ubigeo":"0905","nombre_departamento":"huancavelica","nombre_provincia":"churcampa","nombre_distrito":"churcampa","capital":"churcampa"},"geometry":{"type":"Point","coordinates":[-74.39001,-12.74093]}},{"type":"Feature","id":"0608","properties":{"ubigeo":"0608","nombre_departamento":"cajamarca","nombre_provincia":"jaen","nombre_distrito":"jaen","capital":"jaen"},"geometry":{"type":"Point","coordinates":[-78.81192,-5.7106]}},{"type":"Feature","id":"0609","properties":{"ubigeo":"0609","nombre_departamento":"cajamarca","nombre_provincia":"san ignacio","nombre_distrito":"san ignacio","capital":"san ignacio"},"geometry":{"type":"Point","coordinates":[-79.00179,-5.1452]}},{"type":"Feature","id":"0604","properties":{"ubigeo":"0604","nombre_departamento":"cajamarca","nombre_provincia":"chota","nombre_distrito":"chota","capital":"chota"},"geometry":{"type":"Point","coordinates":[-78.65334,-6.56221]}},{"type":"Feature","id":"0606","properties":{"ubigeo":"0606","nombre_departamento":"cajamarca","nombre_provincia":"cutervo","nombre_distrito":"cutervo","capital":"cutervo"},"geometry":{"type":"Point","coordinates":[-78.82064,-6.37964]}},{"type":"Feature","id":"0607","properties":{"ubigeo":"0607","nombre_departamento":"cajamarca","nombre_provincia":"hualgayoc","nombre_distrito":"bambamarca","capital":"bambamarca"},"geometry":{"type":"Point","coordinates":[-78.52424,-6.67876]}},{"type":"Feature","id":"0611","properties":{"ubigeo":"0611","nombre_departamento":"cajamarca","nombre_provincia":"san miguel","nombre_distrito":"san miguel","capital":"san miguel de pallaques"},"geometry":{"type":"Point","coordinates":[-78.85382,-6.99998]}},{"type":"Feature","id":"0603","properties":{"ubigeo":"0603","nombre_departamento":"cajamarca","nombre_provincia":"celendin","nombre_distrito":"celendin","capital":"celendin"},"geometry":{"type":"Point","coordinates":[-78.14889,-6.86815]}},{"type":"Feature","id":"0601","properties":{"ubigeo":"0601","nombre_departamento":"cajamarca","nombre_provincia":"cajamarca","nombre_distrito":"cajamarca","capital":"cajamarca"},"geometry":{"type":"Point","coordinates":[-78.52179,-7.15742]}},{"type":"Feature","id":"0605","properties":{"ubigeo":"0605","nombre_departamento":"cajamarca","nombre_provincia":"contumaza","nombre_distrito":"contumaza","capital":"contumaza"},"geometry":{"type":"Point","coordinates":[-78.80661,-7.36542]}},{"type":"Feature","id":"0612","properties":{"ubigeo":"0612","nombre_departamento":"cajamarca","nombre_provincia":"san pablo","nombre_distrito":"san pablo","capital":"san pablo"},"geometry":{"type":"Point","coordinates":[-78.82563,-7.11932]}},{"type":"Feature","id":"0602","properties":{"ubigeo":"0602","nombre_departamento":"cajamarca","nombre_provincia":"cajabamba","nombre_distrito":"cajabamba","capital":"cajabamba"},"geometry":{"type":"Point","coordinates":[-78.04726,-7.6225]}},{"type":"Feature","id":"0610","properties":{"ubigeo":"0610","nombre_departamento":"cajamarca","nombre_provincia":"san marcos","nombre_distrito":"pedro galvez","capital":"san marcos"},"geometry":{"type":"Point","coordinates":[-78.173,-7.33618]}},{"type":"Feature","id":"0613","properties":{"ubigeo":"0613","nombre_departamento":"cajamarca","nombre_provincia":"santa cruz","nombre_distrito":"santa cruz","capital":"santa cruz"},"geometry":{"type":"Point","coordinates":[-78.94757,-6.62767]}},{"type":"Feature","id":"0305","properties":{"ubigeo":"0305","nombre_departamento":"apurimac","nombre_provincia":"cotabambas","nombre_distrito":"tambobamba","capital":"tambobamba"},"geometry":{"type":"Point","coordinates":[-72.17721,-13.94526]}},{"type":"Feature","id":"0301","properties":{"ubigeo":"0301","nombre_departamento":"apurimac","nombre_provincia":"abancay","nombre_distrito":"abancay","capital":"abancay"},"geometry":{"type":"Point","coordinates":[-72.8793,-13.63688]}},{"type":"Feature","id":"0304","properties":{"ubigeo":"0304","nombre_departamento":"apurimac","nombre_provincia":"aymaraes","nombre_distrito":"chalhuanca","capital":"chalhuanca"},"geometry":{"type":"Point","coordinates":[-73.24698,-14.29538]}},{"type":"Feature","id":"2501","properties":{"ubigeo":"2501","nombre_departamento":"ucayali","nombre_provincia":"coronel portillo","nombre_distrito":"calleria","capital":"pucallpa"},"geometry":{"type":"Point","coordinates":[-74.53314,-8.37911]}},{"type":"Feature","id":"2502","properties":{"ubigeo":"2502","nombre_departamento":"ucayali","nombre_provincia":"atalaya","nombre_distrito":"raymondi","capital":"atalaya"},"geometry":{"type":"Point","coordinates":[-73.75898,-10.72806]}},{"type":"Feature","id":"1504","properties":{"ubigeo":"1504","nombre_departamento":"lima","nombre_provincia":"canta","nombre_distrito":"canta","capital":"canta"},"geometry":{"type":"Point","coordinates":[-76.62665,-11.46765]}},{"type":"Feature","id":"2110","properties":{"ubigeo":"2110","nombre_departamento":"puno","nombre_provincia":"san antonio de putina","nombre_distrito":"putina","capital":"putina"},"geometry":{"type":"Point","coordinates":[-69.87159,-14.91549]}},{"type":"Feature","id":"2109","properties":{"ubigeo":"2109","nombre_departamento":"puno","nombre_provincia":"moho","nombre_distrito":"moho","capital":"moho"},"geometry":{"type":"Point","coordinates":[-69.50395,-15.36076]}},{"type":"Feature","id":"2104","properties":{"ubigeo":"2104","nombre_departamento":"puno","nombre_provincia":"chucuito","nombre_distrito":"juli","capital":"juli"},"geometry":{"type":"Point","coordinates":[-69.46202,-16.21524]}},{"type":"Feature","id":"0809","properties":{"ubigeo":"0809","nombre_departamento":"cusco","nombre_provincia":"la convencion","nombre_distrito":"santa ana","capital":"quillabamba"},"geometry":{"type":"Point","coordinates":[-72.69635,-12.86444]}},{"type":"Feature","id":"0813","properties":{"ubigeo":"0813","nombre_departamento":"cusco","nombre_provincia":"urubamba","nombre_distrito":"urubamba","capital":"urubamba"},"geometry":{"type":"Point","coordinates":[-72.11852,-13.30611]}},{"type":"Feature","id":"0804","properties":{"ubigeo":"0804","nombre_departamento":"cusco","nombre_provincia":"calca","nombre_distrito":"calca","capital":"calca"},"geometry":{"type":"Point","coordinates":[-71.95799,-13.32316]}},{"type":"Feature","id":"0811","properties":{"ubigeo":"0811","nombre_departamento":"cusco","nombre_provincia":"paucartambo","nombre_distrito":"paucartambo","capital":"paucartambo"},"geometry":{"type":"Point","coordinates":[-71.59823,-13.31917]}},{"type":"Feature","id":"0802","properties":{"ubigeo":"0802","nombre_departamento":"cusco","nombre_provincia":"acomayo","nombre_distrito":"acomayo","capital":"acomayo"},"geometry":{"type":"Point","coordinates":[-71.68523,-13.91894]}},{"type":"Feature","id":"0810","properties":{"ubigeo":"0810","nombre_departamento":"cusco","nombre_provincia":"paruro","nombre_distrito":"paruro","capital":"paruro"},"geometry":{"type":"Point","coordinates":[-71.85382,-13.75969]}},{"type":"Feature","id":"0805","properties":{"ubigeo":"0805","nombre_departamento":"cusco","nombre_provincia":"canas","nombre_distrito":"yanaoca","capital":"yanaoca"},"geometry":{"type":"Point","coordinates":[-71.43171,-14.22011]}},{"type":"Feature","id":"0807","properties":{"ubigeo":"0807","nombre_departamento":"cusco","nombre_provincia":"chumbivilcas","nombre_distrito":"santo tomas","capital":"santo tomas"},"geometry":{"type":"Point","coordinates":[-72.08528,-14.44976]}},{"type":"Feature","id":"0808","properties":{"ubigeo":"0808","nombre_departamento":"cusco","nombre_provincia":"espinar","nombre_distrito":"espinar","capital":"espinar (yauri)"},"geometry":{"type":"Point","coordinates":[-71.41488,-14.79338]}},{"type":"Feature","id":"0801","properties":{"ubigeo":"0801","nombre_departamento":"cusco","nombre_provincia":"cusco","nombre_distrito":"cusco","capital":"cusco"},"geometry":{"type":"Point","coordinates":[-71.9801,-13.51532]}},{"type":"Feature","id":"1501","properties":{"ubigeo":"1501","nombre_departamento":"lima","nombre_provincia":"lima","nombre_distrito":"lima","capital":"lima cercado"},"geometry":{"type":"Point","coordinates":[-77.0323,-12.04668]}},{"type":"Feature","id":"0218","properties":{"ubigeo":"0218","nombre_departamento":"ancash","nombre_provincia":"santa","nombre_distrito":"chimbote","capital":"chimbote"},"geometry":{"type":"Point","coordinates":[-78.58431,-9.07593]}},{"type":"Feature","id":"1510","properties":{"ubigeo":"1510","nombre_departamento":"lima","nombre_provincia":"yauyos","nombre_distrito":"yauyos","capital":"yauyos"},"geometry":{"type":"Point","coordinates":[-75.92096,-12.46027]}},{"type":"Feature","id":"2007","properties":{"ubigeo":"2007","nombre_departamento":"piura","nombre_provincia":"talara","nombre_distrito":"parinas","capital":"talara"},"geometry":{"type":"Point","coordinates":[-81.27481,-4.58135]}},{"type":"Feature","id":"1703","properties":{"ubigeo":"1703","nombre_departamento":"madre de dios","nombre_provincia":"tahuamanu","nombre_distrito":"inapari","capital":"inapari"},"geometry":{"type":"Point","coordinates":[-69.58057,-10.94478]}},{"type":"Feature","id":"1702","properties":{"ubigeo":"1702","nombre_departamento":"madre de dios","nombre_provincia":"manu","nombre_distrito":"manu","capital":"salvacion"},"geometry":{"type":"Point","coordinates":[-71.3634,-12.83811]}},{"type":"Feature","id":"1402","properties":{"ubigeo":"1402","nombre_departamento":"lambayeque","nombre_provincia":"ferrenafe","nombre_distrito":"ferrenafe","capital":"ferrenafe"},"geometry":{"type":"Point","coordinates":[-79.79126,-6.63968]}},{"type":"Feature","id":"2008","properties":{"ubigeo":"2008","nombre_departamento":"piura","nombre_provincia":"sechura","nombre_distrito":"sechura","capital":"sechura"},"geometry":{"type":"Point","coordinates":[-80.82583,-5.55668]}},{"type":"Feature","id":"2210","properties":{"ubigeo":"2210","nombre_departamento":"san martin","nombre_provincia":"tocache","nombre_distrito":"tocache","capital":"tocache nuevo"},"geometry":{"type":"Point","coordinates":[-76.50283,-8.19448]}},{"type":"Feature","id":"2504","properties":{"ubigeo":"2504","nombre_departamento":"ucayali","nombre_provincia":"purus","nombre_distrito":"purus","capital":"puerto esperanza"},"geometry":{"type":"Point","coordinates":[-70.71883,-9.76979]}},{"type":"Feature","id":"2503","properties":{"ubigeo":"2503","nombre_departamento":"ucayali","nombre_provincia":"padre abad","nombre_distrito":"padre abad","capital":"aguaytia"},"geometry":{"type":"Point","coordinates":[-75.51285,-9.03776]}},{"type":"Feature","id":"0806","properties":{"ubigeo":"0806","nombre_departamento":"cusco","nombre_provincia":"canchis","nombre_distrito":"sicuani","capital":"sicuani"},"geometry":{"type":"Point","coordinates":[-71.22905,-14.27128]}},{"type":"Feature","id":"1506","properties":{"ubigeo":"1506","nombre_departamento":"lima","nombre_provincia":"huaral","nombre_distrito":"huaral","capital":"huaral"},"geometry":{"type":"Point","coordinates":[-77.2147,-11.495]}},{"type":"Feature","id":"1508","properties":{"ubigeo":"1508","nombre_departamento":"lima","nombre_provincia":"huaura","nombre_distrito":"huacho","capital":"huacho"},"geometry":{"type":"Point","coordinates":[-77.60803,-11.10751]}},{"type":"Feature","id":"1604","properties":{"ubigeo":"1604","nombre_departamento":"loreto","nombre_provincia":"mariscal ramon castilla","nombre_distrito":"ramon castilla","capital":"caballo cocha"},"geometry":{"type":"Point","coordinates":[-70.51949,-3.90974]}},{"type":"Feature","id":"1606","properties":{"ubigeo":"1606","nombre_departamento":"loreto","nombre_provincia":"ucayali","nombre_distrito":"contamana","capital":"contamana"},"geometry":{"type":"Point","coordinates":[-75.0416,-7.32502]}},{"type":"Feature","id":"0106","properties":{"ubigeo":"0106","nombre_departamento":"amazonas","nombre_provincia":"rodriguez de mendoza","nombre_distrito":"san nicolas","capital":"san nicolas"},"geometry":{"type":"Point","coordinates":[-77.48312,-6.39569]}},{"type":"Feature","id":"0103","properties":{"ubigeo":"0103","nombre_departamento":"amazonas","nombre_provincia":"bongara","nombre_distrito":"jumbilla","capital":"jumbilla"},"geometry":{"type":"Point","coordinates":[-77.79687,-5.90381]}},{"type":"Feature","id":"0907","properties":{"ubigeo":"0907","nombre_departamento":"huancavelica","nombre_provincia":"tayacaja","nombre_distrito":"pampas","capital":"pampas"},"geometry":{"type":"Point","coordinates":[-74.86732,-12.39571]}},{"type":"Feature","id":"1003","properties":{"ubigeo":"1003","nombre_departamento":"huanuco","nombre_provincia":"dos de mayo","nombre_distrito":"la union","capital":"la union"},"geometry":{"type":"Point","coordinates":[-76.80129,-9.82626]}},{"type":"Feature","id":"2302","properties":{"ubigeo":"2302","nombre_departamento":"tacna","nombre_provincia":"candarave","nombre_distrito":"candarave","capital":"candarave"},"geometry":{"type":"Point","coordinates":[-70.25299,-17.27119]}},{"type":"Feature","id":"2304","properties":{"ubigeo":"2304","nombre_departamento":"tacna","nombre_provincia":"tarata","nombre_distrito":"tarata","capital":"tarata"},"geometry":{"type":"Point","coordinates":[-70.03271,-17.47508]}},{"type":"Feature","id":"0302","properties":{"ubigeo":"0302","nombre_departamento":"apurimac","nombre_provincia":"andahuaylas","nombre_distrito":"andahuaylas","capital":"andahuaylas"},"geometry":{"type":"Point","coordinates":[-73.38491,-13.65638]}},{"type":"Feature","id":"0306","properties":{"ubigeo":"0306","nombre_departamento":"apurimac","nombre_provincia":"chincheros","nombre_distrito":"chincheros","capital":"chincheros"},"geometry":{"type":"Point","coordinates":[-73.7215,-13.51776]}},{"type":"Feature","id":"0510","properties":{"ubigeo":"0510","nombre_departamento":"ayacucho","nombre_provincia":"victor fajardo","nombre_distrito":"huancapi","capital":"huancapi"},"geometry":{"type":"Point","coordinates":[-74.06697,-13.75282]}},{"type":"Feature","id":"0509","properties":{"ubigeo":"0509","nombre_departamento":"ayacucho","nombre_provincia":"sucre","nombre_distrito":"querobamba","capital":"querobamba"},"geometry":{"type":"Point","coordinates":[-73.84085,-14.01363]}},{"type":"Feature","id":"0503","properties":{"ubigeo":"0503","nombre_departamento":"ayacucho","nombre_provincia":"huanca sancos","nombre_distrito":"sancos","capital":"sancos (huanca)"},"geometry":{"type":"Point","coordinates":[-74.33435,-13.91752]}},{"type":"Feature","id":"0502","properties":{"ubigeo":"0502","nombre_departamento":"ayacucho","nombre_provincia":"cangallo","nombre_distrito":"cangallo","capital":"cangallo"},"geometry":{"type":"Point","coordinates":[-74.14432,-13.62828]}},{"type":"Feature","id":"2101","properties":{"ubigeo":"2101","nombre_departamento":"puno","nombre_provincia":"puno","nombre_distrito":"puno","capital":"puno"},"geometry":{"type":"Point","coordinates":[-70.02803,-15.84065]}},{"type":"Feature","id":"2111","properties":{"ubigeo":"2111","nombre_departamento":"puno","nombre_provincia":"san roman","nombre_distrito":"juliaca","capital":"juliaca"},"geometry":{"type":"Point","coordinates":[-70.13582,-15.49396]}},{"type":"Feature","id":"2106","properties":{"ubigeo":"2106","nombre_departamento":"puno","nombre_provincia":"huancane","nombre_distrito":"huancane","capital":"huancane"},"geometry":{"type":"Point","coordinates":[-69.76152,-15.2019]}},{"type":"Feature","id":"2107","properties":{"ubigeo":"2107","nombre_departamento":"puno","nombre_provincia":"lampa","nombre_distrito":"lampa","capital":"lampa"},"geometry":{"type":"Point","coordinates":[-70.36544,-15.36387]}},{"type":"Feature","id":"2113","properties":{"ubigeo":"2113","nombre_departamento":"puno","nombre_provincia":"yunguyo","nombre_distrito":"yunguyo","capital":"yunguyo"},"geometry":{"type":"Point","coordinates":[-69.09521,-16.24715]}},{"type":"Feature","id":"2105","properties":{"ubigeo":"2105","nombre_departamento":"puno","nombre_provincia":"el collao","nombre_distrito":"ilave","capital":"ilave"},"geometry":{"type":"Point","coordinates":[-69.63887,-16.08685]}},{"type":"Feature","id":"2102","properties":{"ubigeo":"2102","nombre_departamento":"puno","nombre_provincia":"azangaro","nombre_distrito":"azangaro","capital":"azangaro"},"geometry":{"type":"Point","coordinates":[-70.19903,-14.91261]}},{"type":"Feature","id":"2108","properties":{"ubigeo":"2108","nombre_departamento":"puno","nombre_provincia":"melgar","nombre_distrito":"ayaviri","capital":"ayaviri"},"geometry":{"type":"Point","coordinates":[-70.58984,-14.88118]}},{"type":"Feature","id":"0812","properties":{"ubigeo":"0812","nombre_departamento":"cusco","nombre_provincia":"quispicanchi","nombre_distrito":"urcos","capital":"urcos"},"geometry":{"type":"Point","coordinates":[-71.6243,-13.68439]}},{"type":"Feature","id":"0803","properties":{"ubigeo":"0803","nombre_departamento":"cusco","nombre_provincia":"anta","nombre_distrito":"anta","capital":"anta"},"geometry":{"type":"Point","coordinates":[-72.14502,-13.46546]}},{"type":"Feature","id":"0408","properties":{"ubigeo":"0408","nombre_departamento":"arequipa","nombre_provincia":"la union","nombre_distrito":"cotahuasi","capital":"cotahuasi"},"geometry":{"type":"Point","coordinates":[-72.89128,-15.21134]}},{"type":"Feature","id":"0508","properties":{"ubigeo":"0508","nombre_departamento":"ayacucho","nombre_provincia":"paucar del sara sara","nombre_distrito":"pausa","capital":"pausa"},"geometry":{"type":"Point","coordinates":[-73.3435,-15.28083]}},{"type":"Feature","id":"0303","properties":{"ubigeo":"0303","nombre_departamento":"apurimac","nombre_provincia":"antabamba","nombre_distrito":"antabamba","capital":"antambamba"},"geometry":{"type":"Point","coordinates":[-72.87781,-14.36533]}},{"type":"Feature","id":"0307","properties":{"ubigeo":"0307","nombre_departamento":"apurimac","nombre_provincia":"grau","nombre_distrito":"chuquibambilla","capital":"chuquibambilla"},"geometry":{"type":"Point","coordinates":[-72.70869,-14.10441]}},{"type":"Feature","id":"mogral","properties":{"ubigeo":"mogral","nombre_departamento":"moquegua","nombre_provincia":"gral.sanchez cerro","nombre_distrito":"omate","capital":"omate"},"geometry":{"type":"Point","coordinates":[-70.97212,-16.67414]}},{"type":"Feature","id":"2103","properties":{"ubigeo":"2103","nombre_departamento":"puno","nombre_provincia":"carabaya","nombre_distrito":"macusani","capital":"macusani"},"geometry":{"type":"Point","coordinates":[-70.43089,-14.06877]}},{"type":"Feature","id":"2112","properties":{"ubigeo":"2112","nombre_departamento":"puno","nombre_provincia":"sandia","nombre_distrito":"sandia","capital":"sandia"},"geometry":{"type":"Point","coordinates":[-69.46524,-14.32335]}},{"type":"Feature","id":"0404","properties":{"ubigeo":"0404","nombre_departamento":"arequipa","nombre_provincia":"castilla","nombre_distrito":"aplao","capital":"aplao"},"geometry":{"type":"Point","coordinates":[-72.49259,-16.07635]}}]}